start=new Date('2021-11-16T00:00:00.000Z').valueOf();
sats=[{"GP_ID":"189837792","DECAY_DATE":null,"ECCENTRICITY":"0.00038100","ELEMENT_SET_NO":"999","OBJECT_TYPE":"PAYLOAD","BSTAR":"-0.00001798200000","INCLINATION":"53.0561","EPOCH":"2021-11-15T22:00:00.999936","TLE_LINE1":"1 47987U 21024L   21319.91667824 -.00003153  00000-0 -17982-4 0  9998","TLE_LINE2":"2 47987  53.0561 108.6225 0003810  11.4898  20.9903 15.73231058  3713","CENTER_NAME":"EARTH","REV_AT_EPOCH":"371","LAUNCH_DATE":"2021-03-24","TIME_SYSTEM":"UTC","OBJECT_ID":"2021-024L","COUNTRY_CODE":"US","MEAN_ELEMENT_THEORY":"SGP4","SITE":"AFETR","MEAN_ANOMALY":"20.9903","RA_OF_ASC_NODE":"108.6225","ARG_OF_PERICENTER":"11.4898","APOAPSIS":"352.235","RCS_SIZE":"LARGE","FILE":"3215928","MEAN_MOTION_DDOT":"0.0000000000000","PERIOD":"91.531","CLASSIFICATION_TYPE":"U","NORAD_CAT_ID":"47987","MEAN_MOTION_DOT":"-0.00003153","SEMIMAJOR_AXIS":"6727.807","MEAN_MOTION":"15.73231058","REF_FRAME":"TEME","EPHEMERIS_TYPE":"0","OBJECT_NAME":"STARLINK-2311","PERIAPSIS":"347.108"},{"CLASSIFICATION_TYPE":"U","PERIOD":"95.593","NORAD_CAT_ID":"47988","MEAN_MOTION_DOT":"-0.00000938","SEMIMAJOR_AXIS":"6925.375","MEAN_MOTION":"15.06391281","REF_FRAME":"TEME","OBJECT_NAME":"STARLINK-2306","EPHEMERIS_TYPE":"0","PERIAPSIS":"546.082","COUNTRY_CODE":"US","MEAN_ANOMALY":"287.9174","SITE":"AFETR","MEAN_ELEMENT_THEORY":"SGP4","RA_OF_ASC_NODE":"181.6547","ARG_OF_PERICENTER":"72.1997","APOAPSIS":"548.399","RCS_SIZE":"LARGE","FILE":"3215928","MEAN_MOTION_DDOT":"0.0000000000000","TLE_LINE1":"1 47988U 21024M   21319.78188231 -.00000938  00000-0 -44098-4 0  9990","TLE_LINE2":"2 47988  53.0561 181.6547 0001673  72.1997 287.9174 15.06391281 37477","CENTER_NAME":"EARTH","REV_AT_EPOCH":"3747","LAUNCH_DATE":"2021-03-24","OBJECT_ID":"2021-024M","TIME_SYSTEM":"UTC","GP_ID":"189838042","DECAY_DATE":null,"ECCENTRICITY":"0.00016730","ELEMENT_SET_NO":"999","BSTAR":"-0.00004409800000","OBJECT_TYPE":"PAYLOAD","EPOCH":"2021-11-15T18:45:54.631584","INCLINATION":"53.0561"},{"TIME_SYSTEM":"UTC","OBJECT_ID":"2021-024N","LAUNCH_DATE":"2021-03-24","REV_AT_EPOCH":"364","CENTER_NAME":"EARTH","TLE_LINE2":"2 47989  53.0444 116.4506 0001659  58.7076 144.1969 15.10938817  3646","TLE_LINE1":"1 47989U 21024N   21319.83334491 -.00915889  00000-0 -58683-1 0  9990","EPOCH":"2021-11-15T20:00:01.000224","INCLINATION":"53.0444","OBJECT_TYPE":"PAYLOAD","BSTAR":"-0.05868300000000","ELEMENT_SET_NO":"999","ECCENTRICITY":"0.00016590","DECAY_DATE":null,"GP_ID":"189838294","PERIAPSIS":"532.191","EPHEMERIS_TYPE":"0","OBJECT_NAME":"STARLINK-2305","REF_FRAME":"TEME","MEAN_MOTION":"15.10938817","SEMIMAJOR_AXIS":"6911.473","MEAN_MOTION_DOT":"-0.00915889","PERIOD":"95.305","CLASSIFICATION_TYPE":"U","NORAD_CAT_ID":"47989","MEAN_MOTION_DDOT":"0.0000000000000","FILE":"3215928","RCS_SIZE":"MEDIUM","APOAPSIS":"534.484","ARG_OF_PERICENTER":"58.7076","RA_OF_ASC_NODE":"116.4506","MEAN_ANOMALY":"144.1969","SITE":"AFETR","MEAN_ELEMENT_THEORY":"SGP4","COUNTRY_CODE":"US"},{"OBJECT_NAME":"STARLINK-2307","EPHEMERIS_TYPE":"0","PERIAPSIS":"541.283","REF_FRAME":"TEME","MEAN_MOTION":"15.08005068","MEAN_MOTION_DOT":"-0.01053900","PERIOD":"95.490","CLASSIFICATION_TYPE":"U","NORAD_CAT_ID":"47990","SEMIMAJOR_AXIS":"6920.434","MEAN_MOTION_DDOT":"0.0000000000000","FILE":"3215928","RCS_SIZE":"LARGE","APOAPSIS":"543.314","MEAN_ELEMENT_THEORY":"SGP4","SITE":"AFETR","MEAN_ANOMALY":"114.6367","COUNTRY_CODE":"US","ARG_OF_PERICENTER":"97.8307","RA_OF_ASC_NODE":"116.0486","OBJECT_ID":"2021-024P","TIME_SYSTEM":"UTC","LAUNCH_DATE":"2021-03-24","CENTER_NAME":"EARTH","REV_AT_EPOCH":"365","TLE_LINE2":"2 47990  53.0544 116.0486 0001467  97.8307 114.6367 15.08005068  3655","TLE_LINE1":"1 47990U 21024P   21319.91667824 -.01053900  00000-0 -73103-1 0  9992","EPOCH":"2021-11-15T22:00:00.999936","INCLINATION":"53.0544","BSTAR":"-0.07310300000000","OBJECT_TYPE":"PAYLOAD","ECCENTRICITY":"0.00014670","DECAY_DATE":null,"ELEMENT_SET_NO":"999","GP_ID":"189838545"},{"ELEMENT_SET_NO":"999","ECCENTRICITY":"0.00016440","DECAY_DATE":null,"INCLINATION":"53.0530","EPOCH":"2021-11-15T20:00:01.000224","BSTAR":"0.00087575000000","OBJECT_TYPE":"PAYLOAD","GP_ID":"189837293","LAUNCH_DATE":"2021-03-24","TIME_SYSTEM":"UTC","OBJECT_ID":"2021-024Q","TLE_LINE2":"2 47991  53.0530 130.2907 0001644  74.3668 209.4503 15.04763883  3594","TLE_LINE1":"1 47991U 21024Q   21319.83334491  .00012227  00000-0  87575-3 0  9999","REV_AT_EPOCH":"359","CENTER_NAME":"EARTH","RCS_SIZE":"LARGE","MEAN_MOTION_DDOT":"0.0000000000000","FILE":"3215928","ARG_OF_PERICENTER":"74.3668","RA_OF_ASC_NODE":"130.2907","MEAN_ANOMALY":"209.4503","SITE":"AFETR","MEAN_ELEMENT_THEORY":"SGP4","COUNTRY_CODE":"US","APOAPSIS":"553.372","REF_FRAME":"TEME","PERIAPSIS":"551.093","EPHEMERIS_TYPE":"0","OBJECT_NAME":"STARLINK-2279","SEMIMAJOR_AXIS":"6930.368","MEAN_MOTION_DOT":"0.00012227","CLASSIFICATION_TYPE":"U","PERIOD":"95.696","NORAD_CAT_ID":"47991","MEAN_MOTION":"15.04763883"},{"PERIAPSIS":"545.653","EPHEMERIS_TYPE":"0","OBJECT_NAME":"STARLINK-2229","REF_FRAME":"TEME","MEAN_MOTION":"15.06397255","SEMIMAJOR_AXIS":"6925.357","NORAD_CAT_ID":"47992","PERIOD":"95.592","CLASSIFICATION_TYPE":"U","MEAN_MOTION_DOT":"0.00014885","FILE":"3215928","MEAN_MOTION_DDOT":"0.0000000000000","RCS_SIZE":"LARGE","APOAPSIS":"548.791","RA_OF_ASC_NODE":"126.4125","ARG_OF_PERICENTER":"64.3711","COUNTRY_CODE":"US","SITE":"AFETR","MEAN_ELEMENT_THEORY":"SGP4","MEAN_ANOMALY":"282.6245","OBJECT_ID":"2021-024R","TIME_SYSTEM":"UTC","LAUNCH_DATE":"2021-03-24","REV_AT_EPOCH":"358","CENTER_NAME":"EARTH","TLE_LINE1":"1 47992U 21024R   21319.83334491  .00014885  00000-0  10161-2 0  9998","TLE_LINE2":"2 47992  53.0541 126.4125 0002265  64.3711 282.6245 15.06397255  3587","BSTAR":"0.00101610000000","OBJECT_TYPE":"PAYLOAD","INCLINATION":"53.0541","EPOCH":"2021-11-15T20:00:01.000224","ELEMENT_SET_NO":"999","DECAY_DATE":null,"ECCENTRICITY":"0.00022650","GP_ID":"189837543"},{"DECAY_DATE":null,"ECCENTRICITY":"0.00016360","ELEMENT_SET_NO":"999","BSTAR":"0.00010190000000","OBJECT_TYPE":"PAYLOAD","EPOCH":"2021-11-15T20:26:04.353792","INCLINATION":"53.0552","GP_ID":"189838794","LAUNCH_DATE":"2021-03-24","TIME_SYSTEM":"UTC","OBJECT_ID":"2021-024S","TLE_LINE1":"1 47993U 21024S   21319.85143928  .00001237  00000-0  10190-3 0  9994","TLE_LINE2":"2 47993  53.0552 166.3403 0001636  85.4664 274.6511 15.06403044 37751","CENTER_NAME":"EARTH","REV_AT_EPOCH":"3775","RCS_SIZE":"LARGE","FILE":"3215928","MEAN_MOTION_DDOT":"0.0000000000000","COUNTRY_CODE":"US","SITE":"AFETR","MEAN_ELEMENT_THEORY":"SGP4","MEAN_ANOMALY":"274.6511","RA_OF_ASC_NODE":"166.3403","ARG_OF_PERICENTER":"85.4664","APOAPSIS":"548.337","REF_FRAME":"TEME","EPHEMERIS_TYPE":"0","OBJECT_NAME":"STARLINK-2273","PERIAPSIS":"546.071","NORAD_CAT_ID":"47993","PERIOD":"95.592","CLASSIFICATION_TYPE":"U","MEAN_MOTION_DOT":"0.00001237","SEMIMAJOR_AXIS":"6925.339","MEAN_MOTION":"15.06403044"},{"GP_ID":"189839045","INCLINATION":"53.0543","EPOCH":"2021-11-15T22:07:35.412960","OBJECT_TYPE":"PAYLOAD","BSTAR":"0.00013958000000","ELEMENT_SET_NO":"999","ECCENTRICITY":"0.00017990","DECAY_DATE":null,"REV_AT_EPOCH":"3749","CENTER_NAME":"EARTH","TLE_LINE2":"2 47994  53.0543 181.0189 0001799  67.9796 292.1384 15.06403699 37498","TLE_LINE1":"1 47994U 21024T   21319.92193765  .00001798  00000-0  13958-3 0  9994","TIME_SYSTEM":"UTC","OBJECT_ID":"2021-024T","LAUNCH_DATE":"2021-03-24","APOAPSIS":"548.448","ARG_OF_PERICENTER":"67.9796","RA_OF_ASC_NODE":"181.0189","MEAN_ANOMALY":"292.1384","SITE":"AFETR","MEAN_ELEMENT_THEORY":"SGP4","COUNTRY_CODE":"US","MEAN_MOTION_DDOT":"0.0000000000000","FILE":"3215928","RCS_SIZE":"LARGE","MEAN_MOTION":"15.06403699","SEMIMAJOR_AXIS":"6925.337","MEAN_MOTION_DOT":"0.00001798","PERIOD":"95.592","CLASSIFICATION_TYPE":"U","NORAD_CAT_ID":"47994","PERIAPSIS":"545.956","EPHEMERIS_TYPE":"0","OBJECT_NAME":"STARLINK-2290","REF_FRAME":"TEME"},{"LAUNCH_DATE":"2021-03-24","TIME_SYSTEM":"UTC","OBJECT_ID":"2021-024U","TLE_LINE1":"1 47995U 21024U   21319.90013772  .00050450  00000-0  34151-2 0  9998","TLE_LINE2":"2 47995  53.0648 146.0875 0001592  74.9871 285.1294 15.06034737 37991","CENTER_NAME":"EARTH","REV_AT_EPOCH":"3799","DECAY_DATE":null,"ECCENTRICITY":"0.00015920","ELEMENT_SET_NO":"999","BSTAR":"0.00341510000000","OBJECT_TYPE":"PAYLOAD","INCLINATION":"53.0648","EPOCH":"2021-11-15T21:36:11.899008","GP_ID":"189837793","REF_FRAME":"TEME","OBJECT_NAME":"STARLINK-2309","EPHEMERIS_TYPE":"0","PERIAPSIS":"547.231","PERIOD":"95.615","CLASSIFICATION_TYPE":"U","NORAD_CAT_ID":"47995","MEAN_MOTION_DOT":"0.00050450","SEMIMAJOR_AXIS":"6926.468","MEAN_MOTION":"15.06034737","RCS_SIZE":"MEDIUM","FILE":"3215928","MEAN_MOTION_DDOT":"0.0000000000000","COUNTRY_CODE":"US","SITE":"AFETR","MEAN_ANOMALY":"285.1294","MEAN_ELEMENT_THEORY":"SGP4","RA_OF_ASC_NODE":"146.0875","ARG_OF_PERICENTER":"74.9871","APOAPSIS":"549.436"},{"GP_ID":"189838043","DECAY_DATE":null,"ECCENTRICITY":"0.00014040","ELEMENT_SET_NO":"999","BSTAR":"-0.01308600000000","OBJECT_TYPE":"PAYLOAD","INCLINATION":"53.0404","EPOCH":"2021-11-15T22:00:00.999936","TLE_LINE1":"1 47996U 21024V   21319.91667824 -.00661920  00000-0 -13086-1 0  9998","TLE_LINE2":"2 47996  53.0404 110.5656 0001404  61.3689 156.7504 15.48977412  3693","CENTER_NAME":"EARTH","REV_AT_EPOCH":"369","LAUNCH_DATE":"2021-03-24","TIME_SYSTEM":"UTC","OBJECT_ID":"2021-024V","COUNTRY_CODE":"US","SITE":"AFETR","MEAN_ANOMALY":"156.7504","MEAN_ELEMENT_THEORY":"SGP4","RA_OF_ASC_NODE":"110.5656","ARG_OF_PERICENTER":"61.3689","APOAPSIS":"420.673","RCS_SIZE":"LARGE","FILE":"3215928","MEAN_MOTION_DDOT":"0.0000000000000","NORAD_CAT_ID":"47996","PERIOD":"92.965","CLASSIFICATION_TYPE":"U","MEAN_MOTION_DOT":"-0.00661920","SEMIMAJOR_AXIS":"6797.853","MEAN_MOTION":"15.48977412","REF_FRAME":"TEME","EPHEMERIS_TYPE":"0","OBJECT_NAME":"STARLINK-2260","PERIAPSIS":"418.764"}];
